     2.10           N: GPS NAV DATA                         RINEX VERSION / TYPE
teqc  2008Oct2      WCDA Operator       20090111 00:18:57UTCPGM / RUN BY / DATE
Solaris x86 5.10|AMD64|cc SC5.8 -xarch=amd64|=+|=+          COMMENT
teqc  2008Oct2      WCDA Operator       20090110 01:18:31UTCCOMMENT
                                                            END OF HEADER
 3 09  1  4  0  0  0.0 3.371592611074D-04 5.343281372916D-12 0.000000000000D+00
    1.340000000000D+02 2.056250000000D+01 5.518086993330D-09 1.371041191655D+00
    1.078471541405D-06 1.158904773183D-02 8.907169103622D-06 5.153724590302D+03
    0.000000000000D+00-2.402812242508D-07 8.290888920917D-01 8.754432201385D-08
    9.260174698989D-01 1.910312500000D+02 8.875846033700D-01-8.528926692603D-09
    6.825284300487D-10 1.000000000000D+00 1.513000000000D+03 0.000000000000D+00
    2.800000000000D+00 0.000000000000D+00-4.190951585770D-09 1.340000000000D+02
   -7.182000000000D+03 4.000000000000D+00
26 09  1  4  0  0  0.0 3.500794991851D-05 3.524291969370D-12 0.000000000000D+00
    1.400000000000D+01 1.478437500000D+02 4.021596087048D-09 1.046650506635D+00
    7.817521691322D-06 1.941441674717D-02 3.069639205933D-06 5.153643253326D+03
    0.000000000000D+00-2.197921276093D-07-2.150398704440D+00 9.313225746155D-08
    9.930987065245D-01 3.394375000000D+02 9.652932156970D-01-8.391420964937D-09
    1.564350875779D-10 1.000000000000D+00 1.513000000000D+03 0.000000000000D+00
    2.000000000000D+00 0.000000000000D+00-6.053596735001D-09 1.400000000000D+01
   -7.182000000000D+03 4.000000000000D+00
21 09  1  4  0  0  0.0 3.444729372859D-05-1.705302565824D-12 0.000000000000D+00
    9.300000000000D+01-2.231250000000D+01 5.594518748447D-09-1.025997396384D+00
   -1.143664121628D-06 1.454009953886D-02 5.567446351051D-06 5.153639030457D+03
    0.000000000000D+00 3.371387720108D-07 2.008348459249D+00-3.166496753693D-08
    9.343853583864D-01 2.538125000000D+02-2.655060230304D+00-8.449994833345D-09
   -4.218032840856D-10 1.000000000000D+00 1.513000000000D+03 0.000000000000D+00
    2.000000000000D+00 0.000000000000D+00-1.164153218269D-08 9.300000000000D+01
   -7.182000000000D+03 4.000000000000D+00
 6 09  1  4  0  0  0.0 9.627826511860D-05-1.193711796077D-11 0.000000000000D+00
    7.000000000000D+01 2.653125000000D+01 5.312721296167D-09-2.372267094218D+00
    1.408159732819D-06 5.631154752336D-03 7.849186658859D-06 5.153708246231D+03
    0.000000000000D+00 3.725290298462D-08 8.955763112510D-01 6.332993507385D-08
    9.334713930018D-01 2.091875000000D+02-1.483411696337D+00-8.221056725725D-09
    7.786038605475D-10 1.000000000000D+00 1.513000000000D+03 0.000000000000D+00
    2.800000000000D+00 0.000000000000D+00-4.656612873077D-09 7.000000000000D+01
   -7.182000000000D+03 4.000000000000D+00
10 09  1  4  0  0  0.0-9.311363101006D-06-5.684341886081D-13 0.000000000000D+00
    2.800000000000D+01 1.045625000000D+02 4.167316442600D-09 2.610610108150D+00
    5.302950739861D-06 8.438455988653D-03 1.339428126812D-05 5.153775455475D+03
    0.000000000000D+00-1.192092895508D-07 3.059060262002D+00-1.527369022369D-07
    9.607014420769D-01 1.201562500000D+02 5.787069664509D-01-7.541742715285D-09
   -4.543046378974D-10 1.000000000000D+00 1.513000000000D+03 0.000000000000D+00
    2.000000000000D+00 0.000000000000D+00-2.793967723846D-09 2.800000000000D+01
   -7.182000000000D+03 4.000000000000D+00
24 09  1 10 23 59 44.0 1.565860584378D-04 3.069544618484D-12 0.000000000000D+00
    2.000000000000D+01-2.346875000000D+01 5.153071788981D-09-2.402820938520D+00
   -1.177191734314D-06 7.051964988932D-03 6.573274731636D-06 5.153654716492D+03
    6.047840000000D+05-1.098960638046D-07 2.158581431387D+00 1.117587089539D-07
    9.510512576166D-01 2.482187500000D+02-6.446850414225D-01-8.102123200238D-09
   -5.535944880039D-10 1.000000000000D+00 1.513000000000D+03 0.000000000000D+00
    2.000000000000D+00 0.000000000000D+00-1.396983861923D-09 2.000000000000D+01
    5.991780000000D+05 4.000000000000D+00
 8 09  1 10 23 59 44.0-1.858454197645D-04-1.591615728103D-12 0.000000000000D+00
    1.100000000000D+01-1.290000000000D+02 4.042311235631D-09-7.630564960459D-01
   -6.828457117081D-06 1.050119160209D-02 1.333653926849D-06 5.153695281982D+03
    6.047840000000D+05 3.166496753693D-08-9.761374529116D-01-1.732259988785D-07
    9.866227938967D-01 3.642187500000D+02 2.969812325953D+00-8.263558496095D-09
   -3.000124967247D-10 1.000000000000D+00 1.513000000000D+03 0.000000000000D+00
    2.000000000000D+00 0.000000000000D+00-4.190951585770D-09 1.100000000000D+01
    5.998980000000D+05 4.000000000000D+00
 9 09  1 10 23 59 28.0 3.433972597122D-05 1.932676241267D-12 0.000000000000D+00
    8.400000000000D+01-9.746875000000D+01 4.616620872219D-09-1.032199738942D+00
   -4.690140485764D-06 2.014418924227D-02 2.887099981308D-07 5.153653654099D+03
    6.047680000000D+05-2.514570951462D-07-1.068711700406D+00 3.986060619354D-07
    9.743563750197D-01 3.811562500000D+02 1.455839448780D+00-8.741792702183D-09
   -2.875119760278D-10 1.000000000000D+00 1.513000000000D+03 0.000000000000D+00
    2.000000000000D+00 0.000000000000D+00-5.587935447693D-09 8.400000000000D+01
    6.017580000000D+05 4.000000000000D+00
14 09  1 10 23 59 44.0-1.699770800769D-04 5.115907697473D-12 0.000000000000D+00
    1.100000000000D+01 1.415937500000D+02 3.959450641298D-09 1.979560627709D+00
    7.262453436852D-06 4.460818716325D-03 3.350898623466D-06 5.153561767578D+03
    6.047840000000D+05-8.940696716309D-08-2.046617809572D+00-8.568167686462D-08
    9.888261035934D-01 3.286562500000D+02-2.100157291912D+00-8.001404719195D-09
    2.903692379014D-10 1.000000000000D+00 1.513000000000D+03 0.000000000000D+00
    2.000000000000D+00 0.000000000000D+00-9.313225746155D-09 1.100000000000D+01
    6.038280000000D+05 4.000000000000D+00
